[{"OBJECT_NAME":"WNISAT-1","OBJECT_ID":"2013-066H","EPOCH":"2026-03-28T23:39:29.795328","MEAN_MOTION":14.57937666,"ECCENTRICITY":0.0164598,"INCLINATION":97.7082,"RA_OF_ASC_NODE":242.8905,"ARG_OF_PERICENTER":124.3179,"MEAN_ANOMALY":237.3724,"EPHEMERIS_TYPE":0,"CLASSIFICATION_TYPE":"U","NORAD_CAT_ID":39423,"ELEMENT_SET_NO":999,"REV_AT_EPOCH":65504,"BSTAR":0.00029356,"MEAN_MOTION_DOT":1.576e-5,"MEAN_MOTION_DDOT":0},{"OBJECT_NAME":"TRITON-1","OBJECT_ID":"2013-066M","EPOCH":"2026-03-29T04:39:07.254144","MEAN_MOTION":14.81299932,"ECCENTRICITY":0.0091625,"INCLINATION":97.8286,"RA_OF_ASC_NODE":359.8334,"ARG_OF_PERICENTER":134.2875,"MEAN_ANOMALY":226.5901,"EPHEMERIS_TYPE":0,"CLASSIFICATION_TYPE":"U","NORAD_CAT_ID":39427,"ELEMENT_SET_NO":999,"REV_AT_EPOCH":66224,"BSTAR":0.00034085,"MEAN_MOTION_DOT":2.803e-5,"MEAN_MOTION_DDOT":0},{"OBJECT_NAME":"GOMX-1","OBJECT_ID":"2013-066Q","EPOCH":"2026-03-29T04:01:02.824320","MEAN_MOTION":14.69169369,"ECCENTRICITY":0.0128761,"INCLINATION":97.6557,"RA_OF_ASC_NODE":293.6576,"ARG_OF_PERICENTER":335.1371,"MEAN_ANOMALY":24.3666,"EPHEMERIS_TYPE":0,"CLASSIFICATION_TYPE":"U","NORAD_CAT_ID":39430,"ELEMENT_SET_NO":999,"REV_AT_EPOCH":65816,"BSTAR":0.00026646,"MEAN_MOTION_DOT":1.727e-5,"MEAN_MOTION_DDOT":0},{"OBJECT_NAME":"CUBEBUG-2 (LO-74)","OBJECT_ID":"2013-066AA","EPOCH":"2026-03-29T03:10:57.067680","MEAN_MOTION":14.93170775,"ECCENTRICITY":0.0056644,"INCLINATION":97.8831,"RA_OF_ASC_NODE":36.8418,"ARG_OF_PERICENTER":293.6765,"MEAN_ANOMALY":65.8516,"EPHEMERIS_TYPE":0,"CLASSIFICATION_TYPE":"U","NORAD_CAT_ID":39440,"ELEMENT_SET_NO":999,"REV_AT_EPOCH":66504,"BSTAR":0.00058393,"MEAN_MOTION_DOT":6.229e-5,"MEAN_MOTION_DDOT":0},{"OBJECT_NAME":"NEE-02 KRYSAOR","OBJECT_ID":"2013-066AB","EPOCH":"2026-03-28T18:25:31.973088","MEAN_MOTION":14.86287699,"ECCENTRICITY":0.00659296,"INCLINATION":97.8832,"RA_OF_ASC_NODE":27.6007,"ARG_OF_PERICENTER":334.7799,"MEAN_ANOMALY":25.0201,"EPHEMERIS_TYPE":0,"CLASSIFICATION_TYPE":"U","NORAD_CAT_ID":39441,"ELEMENT_SET_NO":999,"REV_AT_EPOCH":66425,"BSTAR":0.00040702494,"MEAN_MOTION_DOT":3.667e-5,"MEAN_MOTION_DDOT":0},{"OBJECT_NAME":"FUNCUBE-1 (AO-73)","OBJECT_ID":"2013-066AE","EPOCH":"2026-03-29T03:33:35.185824","MEAN_MOTION":15.08248025,"ECCENTRICITY":0.0038894,"INCLINATION":97.8202,"RA_OF_ASC_NODE":58.0254,"ARG_OF_PERICENTER":114.7543,"MEAN_ANOMALY":245.774,"EPHEMERIS_TYPE":0,"CLASSIFICATION_TYPE":"U","NORAD_CAT_ID":39444,"ELEMENT_SET_NO":999,"REV_AT_EPOCH":66759,"BSTAR":0.00063794,"MEAN_MOTION_DOT":9.994e-5,"MEAN_MOTION_DDOT":0},{"OBJECT_NAME":"UWE-3","OBJECT_ID":"2013-066AG","EPOCH":"2026-03-28T20:32:03.082272","MEAN_MOTION":14.96371134,"ECCENTRICITY":0.00484132,"INCLINATION":97.8615,"RA_OF_ASC_NODE":43.468,"ARG_OF_PERICENTER":226.6001,"MEAN_ANOMALY":133.1185,"EPHEMERIS_TYPE":0,"CLASSIFICATION_TYPE":"U","NORAD_CAT_ID":39446,"ELEMENT_SET_NO":999,"REV_AT_EPOCH":66556,"BSTAR":0.00037941568,"MEAN_MOTION_DOT":4.336e-5,"MEAN_MOTION_DDOT":0},{"OBJECT_NAME":"BRITE-CA1 (TORONTO)","OBJECT_ID":"2014-033L","EPOCH":"2026-03-28T22:16:08.539104","MEAN_MOTION":14.72522433,"ECCENTRICITY":0.0079091,"INCLINATION":97.9603,"RA_OF_ASC_NODE":218.4023,"ARG_OF_PERICENTER":172.9629,"MEAN_ANOMALY":187.2709,"EPHEMERIS_TYPE":0,"CLASSIFICATION_TYPE":"U","NORAD_CAT_ID":40020,"ELEMENT_SET_NO":999,"REV_AT_EPOCH":63040,"BSTAR":0.00025218,"MEAN_MOTION_DOT":1.63e-5,"MEAN_MOTION_DDOT":0},{"OBJECT_NAME":"DUCHIFAT-1","OBJECT_ID":"2014-033M","EPOCH":"2026-03-29T02:51:15.519168","MEAN_MOTION":15.52278318,"ECCENTRICITY":0.0003732,"INCLINATION":98.0602,"RA_OF_ASC_NODE":136.8704,"ARG_OF_PERICENTER":20.9001,"MEAN_ANOMALY":339.2402,"EPHEMERIS_TYPE":0,"CLASSIFICATION_TYPE":"U","NORAD_CAT_ID":40021,"ELEMENT_SET_NO":999,"REV_AT_EPOCH":64328,"BSTAR":0.0011492,"MEAN_MOTION_DOT":0.00070258,"MEAN_MOTION_DDOT":0},{"OBJECT_NAME":"NANOSATC-BR1","OBJECT_ID":"2014-033Q","EPOCH":"2026-03-29T00:47:40.593408","MEAN_MOTION":15.28844601,"ECCENTRICITY":0.0005484,"INCLINATION":98.0818,"RA_OF_ASC_NODE":113.4501,"ARG_OF_PERICENTER":102.9997,"MEAN_ANOMALY":257.1853,"EPHEMERIS_TYPE":0,"CLASSIFICATION_TYPE":"U","NORAD_CAT_ID":40024,"ELEMENT_SET_NO":999,"REV_AT_EPOCH":64172,"BSTAR":0.00074387,"MEAN_MOTION_DOT":0.0002081,"MEAN_MOTION_DDOT":0},{"OBJECT_NAME":"QB50P1","OBJECT_ID":"2014-033R","EPOCH":"2026-03-28T20:12:51.809184","MEAN_MOTION":15.16904902,"ECCENTRICITY":0.00102651,"INCLINATION":98.1001,"RA_OF_ASC_NODE":93.4257,"ARG_OF_PERICENTER":133.3453,"MEAN_ANOMALY":226.8635,"EPHEMERIS_TYPE":0,"CLASSIFICATION_TYPE":"U","NORAD_CAT_ID":40025,"ELEMENT_SET_NO":999,"REV_AT_EPOCH":64084,"BSTAR":0.00057652032,"MEAN_MOTION_DOT":0.00011309,"MEAN_MOTION_DDOT":0},{"OBJECT_NAME":"QB50P2","OBJECT_ID":"2014-033Y","EPOCH":"2026-03-29T05:28:54.693984","MEAN_MOTION":15.14026147,"ECCENTRICITY":0.0009588,"INCLINATION":98.0744,"RA_OF_ASC_NODE":80.2071,"ARG_OF_PERICENTER":88.5016,"MEAN_ANOMALY":271.7312,"EPHEMERIS_TYPE":0,"CLASSIFICATION_TYPE":"U","NORAD_CAT_ID":40032,"ELEMENT_SET_NO":999,"REV_AT_EPOCH":64056,"BSTAR":0.00065352,"MEAN_MOTION_DOT":0.00011823,"MEAN_MOTION_DDOT":0},{"OBJECT_NAME":"PERSEUS-M2","OBJECT_ID":"2014-033AD","EPOCH":"2026-03-29T04:02:08.687040","MEAN_MOTION":14.95242303,"ECCENTRICITY":0.0011033,"INCLINATION":97.9886,"RA_OF_ASC_NODE":37.1327,"ARG_OF_PERICENTER":199.1651,"MEAN_ANOMALY":160.9155,"EPHEMERIS_TYPE":0,"CLASSIFICATION_TYPE":"U","NORAD_CAT_ID":40037,"ELEMENT_SET_NO":999,"REV_AT_EPOCH":63882,"BSTAR":0.00020234,"MEAN_MOTION_DOT":2.167e-5,"MEAN_MOTION_DDOT":0},{"OBJECT_NAME":"PERSEUS-M1","OBJECT_ID":"2014-033AF","EPOCH":"2026-03-29T01:55:24.809664","MEAN_MOTION":14.95342509,"ECCENTRICITY":0.0010962,"INCLINATION":97.9576,"RA_OF_ASC_NODE":30.9472,"ARG_OF_PERICENTER":196.6811,"MEAN_ANOMALY":163.405,"EPHEMERIS_TYPE":0,"CLASSIFICATION_TYPE":"U","NORAD_CAT_ID":40039,"ELEMENT_SET_NO":999,"REV_AT_EPOCH":63866,"BSTAR":0.00016802,"MEAN_MOTION_DOT":1.794e-5,"MEAN_MOTION_DDOT":0},{"OBJECT_NAME":"POLYITAN-1","OBJECT_ID":"2014-033AJ","EPOCH":"2026-03-29T00:48:00.386784","MEAN_MOTION":15.30383894,"ECCENTRICITY":0.0009345,"INCLINATION":98.103,"RA_OF_ASC_NODE":106.8639,"ARG_OF_PERICENTER":74.7559,"MEAN_ANOMALY":285.4712,"EPHEMERIS_TYPE":0,"CLASSIFICATION_TYPE":"U","NORAD_CAT_ID":40042,"ELEMENT_SET_NO":999,"REV_AT_EPOCH":64132,"BSTAR":0.00079469,"MEAN_MOTION_DOT":0.00023344,"MEAN_MOTION_DDOT":0},{"OBJECT_NAME":"TIGRISAT","OBJECT_ID":"2014-033AK","EPOCH":"2026-03-28T20:43:59.034144","MEAN_MOTION":14.84817063,"ECCENTRICITY":0.0048893,"INCLINATION":97.7707,"RA_OF_ASC_NODE":239.783,"ARG_OF_PERICENTER":339.6273,"MEAN_ANOMALY":20.299,"EPHEMERIS_TYPE":0,"CLASSIFICATION_TYPE":"U","NORAD_CAT_ID":40043,"ELEMENT_SET_NO":999,"REV_AT_EPOCH":63370,"BSTAR":0.00026838,"MEAN_MOTION_DOT":2.272e-5,"MEAN_MOTION_DDOT":0},{"OBJECT_NAME":"AEROCUBE 6A","OBJECT_ID":"2014-033AM","EPOCH":"2026-03-29T04:21:13.721184","MEAN_MOTION":14.97112904,"ECCENTRICITY":0.003837,"INCLINATION":97.7145,"RA_OF_ASC_NODE":256.0663,"ARG_OF_PERICENTER":283.4097,"MEAN_ANOMALY":76.2849,"EPHEMERIS_TYPE":0,"CLASSIFICATION_TYPE":"U","NORAD_CAT_ID":40045,"ELEMENT_SET_NO":999,"REV_AT_EPOCH":63464,"BSTAR":0.00081564,"MEAN_MOTION_DOT":9.501e-5,"MEAN_MOTION_DDOT":0}]
