WNISAT-1                
1 39423U 13066H   26087.98576152  .00001576  00000+0  29356-3 0  9999
2 39423  97.7082 242.8905 0164598 124.3179 237.3724 14.57937666655048
TRITON-1                
1 39427U 13066M   26088.19383396  .00002803  00000+0  34085-3 0  9992
2 39427  97.8286 359.8334 0091625 134.2875 226.5901 14.81299932662248
GOMX-1                  
1 39430U 13066Q   26088.16739380  .00001727  00000+0  26646-3 0  9999
2 39430  97.6557 293.6576 0128761 335.1371  24.3666 14.69169369658163
CUBEBUG-2 (LO-74)       
1 39440U 13066AA  26088.13260495  .00006229  00000+0  58393-3 0  9999
2 39440  97.8831  36.8418 0056644 293.6765  65.8516 14.93170775665047
NEE-02 KRYSAOR          
1 39441U 13066AB  26087.76773117  .00003667  00000+0  40702-3 0  9996
2 39441  97.8832  27.6007 0065929 334.7799  25.0201 14.86287699664258
FUNCUBE-1 (AO-73)       
1 39444U 13066AE  26088.14832391  .00009994  00000+0  63794-3 0  9997
2 39444  97.8202  58.0254 0038894 114.7543 245.7740 15.08248025667592
UWE-3                   
1 39446U 13066AG  26087.85559123  .00004336  00000+0  37942-3 0  9996
2 39446  97.8615  43.4680 0048413 226.6001 133.1185 14.96371134665565
BRITE-CA1 (TORONTO)     
1 40020U 14033L   26087.92787661  .00001630  00000+0  25218-3 0  9996
2 40020  97.9603 218.4023 0079091 172.9629 187.2709 14.72522433630404
DUCHIFAT-1              
1 40021U 14033M   26088.11892962  .00070258  00000+0  11492-2 0  9990
2 40021  98.0602 136.8704 0003732  20.9001 339.2402 15.52278318643288
NANOSATC-BR1            
1 40024U 14033Q   26088.03310872  .00020810  00000+0  74387-3 0  9991
2 40024  98.0818 113.4501 0005484 102.9997 257.1853 15.28844601641729
QB50P1                  
1 40025U 14033R   26087.84226631  .00011309  00000+0  57652-3 0  9998
2 40025  98.1001  93.4257 0010265 133.3453 226.8635 15.16904902640849
QB50P2                  
1 40032U 14033Y   26088.22841081  .00011823  00000+0  65352-3 0  9998
2 40032  98.0744  80.2071 0009588  88.5016 271.7312 15.14026147640564
PERSEUS-M2              
1 40037U 14033AD  26088.16815610  .00002167  00000+0  20234-3 0  9996
2 40037  97.9886  37.1327 0011033 199.1651 160.9155 14.95242303638823
PERSEUS-M1              
1 40039U 14033AF  26088.08014826  .00001794  00000+0  16802-3 0  9990
2 40039  97.9576  30.9472 0010962 196.6811 163.4050 14.95342509638666
POLYITAN-1              
1 40042U 14033AJ  26088.03333781  .00023344  00000+0  79469-3 0  9996
2 40042  98.1030 106.8639 0009345  74.7559 285.4712 15.30383894641323
TIGRISAT                
1 40043U 14033AK  26087.86387771  .00002272  00000+0  26838-3 0  9994
2 40043  97.7707 239.7830 0048893 339.6273  20.2990 14.84817063633700
AEROCUBE 6A             
1 40045U 14033AM  26088.18140881  .00009501  00000+0  81564-3 0  9990
2 40045  97.7145 256.0663 0038370 283.4097  76.2849 14.97112904634647
